LEMUR-2-ANDIS           
1 42838U 17042P   26068.55941107  .00023598  00000+0  79875-3 0  9998
2 42838  97.3659 249.7950 0009101   4.3248 355.8070 15.30557934473198
STARLINK-35252          
1 65850U 25221AD  26068.46904385  .00028065  00000+0  95606-3 0  9996
2 65850  53.1590  89.7889 0001337  73.5171 286.5976 15.30201430 26040
